{
  "type": "FeatureCollection",
  "features": [
    {
      "type": "Feature",
      "properties": {
        "norad_id": 41859,
        "name": "GSAT0207 (GALILEO 15)",
        "group": "gnss",
        "lat": -4.523026022315112,
        "lon": -70.4811021137105,
        "alt_km": 23227.856984279766,
        "timestamp": "2025-12-07T05:38:10.147576+00:00",
        "meta_object_name": "GSAT0207 (GALILEO 15)",
        "meta_object_id": "2016-069A",
        "meta_epoch": "2025-12-05T18:13:35.857920",
        "meta_mean_motion": 1.70474238,
        "meta_eccentricity": 0.00021634,
        "meta_inclination": 55.3781,
        "meta_ra_of_asc_node": 106.4436,
        "meta_arg_of_pericenter": 324.5217,
        "meta_mean_anomaly": 35.4153,
        "meta_ephemeris_type": 0,
        "meta_classification_type": "U",
        "meta_norad_cat_id": 41859,
        "meta_element_set_no": 999,
        "meta_rev_at_epoch": 5610,
        "meta_bstar": 0,
        "meta_mean_motion_dot": 7e-08,
        "meta_mean_motion_ddot": 0,
        "tle_line1": "1 41859U 16069A   25339.75944280  .00000007  00000+0  00000+0 0  9995",
        "tle_line2": "2 41859  55.3781 106.4436 0002163 324.5217  35.4153  1.70474238 56107"
      },
      "geometry": {
        "type": "Point",
        "coordinates": [
          -70.4811021137105,
          -4.523026022315112
        ]
      }
    },
    {
      "type": "Feature",
      "properties": {
        "norad_id": 41860,
        "name": "GSAT0212 (GALILEO 16)",
        "group": "gnss",
        "lat": -55.031318659365155,
        "lon": 25.661170587054254,
        "alt_km": 23231.012219671353,
        "timestamp": "2025-12-07T05:38:10.147589+00:00",
        "meta_object_name": "GSAT0212 (GALILEO 16)",
        "meta_object_id": "2016-069B",
        "meta_epoch": "2025-12-06T04:47:33.838080",
        "meta_mean_motion": 1.70474471,
        "meta_eccentricity": 0.00022225,
        "meta_inclination": 55.376,
        "meta_ra_of_asc_node": 106.4267,
        "meta_arg_of_pericenter": 32.4045,
        "meta_mean_anomaly": 327.5613,
        "meta_ephemeris_type": 0,
        "meta_classification_type": "U",
        "meta_norad_cat_id": 41860,
        "meta_element_set_no": 999,
        "meta_rev_at_epoch": 5636,
        "meta_bstar": 0,
        "meta_mean_motion_dot": 6e-08,
        "meta_mean_motion_ddot": 0,
        "tle_line1": "1 41860U 16069B   25340.19969720  .00000006  00000+0  00000+0 0  9992",
        "tle_line2": "2 41860  55.3760 106.4267 0002222  32.4045 327.5613  1.70474471 56361"
      },
      "geometry": {
        "type": "Point",
        "coordinates": [
          25.661170587054254,
          -55.031318659365155
        ]
      }
    },
    {
      "type": "Feature",
      "properties": {
        "norad_id": 41861,
        "name": "GSAT0213 (GALILEO 17)",
        "group": "gnss",
        "lat": 38.88354673421381,
        "lon": 140.21184395877887,
        "alt_km": 23221.090213423508,
        "timestamp": "2025-12-07T05:38:10.147600+00:00",
        "meta_object_name": "GSAT0213 (GALILEO 17)",
        "meta_object_id": "2016-069C",
        "meta_epoch": "2025-12-04T19:22:49.962144",
        "meta_mean_motion": 1.70474712,
        "meta_eccentricity": 0.00021375,
        "meta_inclination": 55.3775,
        "meta_ra_of_asc_node": 106.4729,
        "meta_arg_of_pericenter": 283.7545,
        "meta_mean_anomaly": 76.173,
        "meta_ephemeris_type": 0,
        "meta_classification_type": "U",
        "meta_norad_cat_id": 41861,
        "meta_element_set_no": 999,
        "meta_rev_at_epoch": 5620,
        "meta_bstar": 0,
        "meta_mean_motion_dot": 1e-07,
        "meta_mean_motion_ddot": 0,
        "tle_line1": "1 41861U 16069C   25338.80752271  .00000010  00000+0  00000+0 0  9994",
        "tle_line2": "2 41861  55.3775 106.4729 0002137 283.7545  76.1730  1.70474712 56200"
      },
      "geometry": {
        "type": "Point",
        "coordinates": [
          140.21184395877887,
          38.88354673421381
        ]
      }
    },
    {
      "type": "Feature",
      "properties": {
        "norad_id": 41862,
        "name": "GSAT0214 (GALILEO 18)",
        "group": "gnss",
        "lat": -31.86429449409609,
        "lon": 80.97862873407422,
        "alt_km": 23223.08347264063,
        "timestamp": "2025-12-07T05:38:10.147612+00:00",
        "meta_object_name": "GSAT0214 (GALILEO 18)",
        "meta_object_id": "2016-069D",
        "meta_epoch": "2025-12-05T12:57:44.455104",
        "meta_mean_motion": 1.70474584,
        "meta_eccentricity": 0.00011763,
        "meta_inclination": 55.3762,
        "meta_ra_of_asc_node": 106.4455,
        "meta_arg_of_pericenter": 291.0864,
        "meta_mean_anomaly": 68.8522,
        "meta_ephemeris_type": 0,
        "meta_classification_type": "U",
        "meta_norad_cat_id": 41862,
        "meta_element_set_no": 999,
        "meta_rev_at_epoch": 5634,
        "meta_bstar": 0,
        "meta_mean_motion_dot": 8e-08,
        "meta_mean_motion_ddot": 0,
        "tle_line1": "1 41862U 16069D   25339.54009786  .00000008  00000+0  00000+0 0  9990",
        "tle_line2": "2 41862  55.3762 106.4455 0001176 291.0864  68.8522  1.70474584 56340"
      },
      "geometry": {
        "type": "Point",
        "coordinates": [
          80.97862873407422,
          -31.86429449409609
        ]
      }
    },
    {
      "type": "Feature",
      "properties": {
        "norad_id": 42709,
        "name": "SES-15 (WAAS/PRN 133)",
        "group": "gnss",
        "lat": 0.03274728262486175,
        "lon": 31.616895538832313,
        "alt_km": 35787.991553391825,
        "timestamp": "2025-12-07T05:38:10.147624+00:00",
        "meta_object_name": "SES-15 (WAAS/PRN 133)",
        "meta_object_id": "2017-026A",
        "meta_epoch": "2025-12-06T10:37:52.502592",
        "meta_mean_motion": 1.00267579,
        "meta_eccentricity": 5.173e-05,
        "meta_inclination": 0.0196,
        "meta_ra_of_asc_node": 346.8785,
        "meta_arg_of_pericenter": 293.5379,
        "meta_mean_anomaly": 185.3614,
        "meta_ephemeris_type": 0,
        "meta_classification_type": "U",
        "meta_norad_cat_id": 42709,
        "meta_element_set_no": 999,
        "meta_rev_at_epoch": 550,
        "meta_bstar": 0,
        "meta_mean_motion_dot": 6.7e-07,
        "meta_mean_motion_ddot": 0,
        "tle_line1": "1 42709U 17026A   25340.44296878  .00000067  00000+0  00000+0 0  9991",
        "tle_line2": "2 42709   0.0196 346.8785 0000517 293.5379 185.3614  1.00267579  5507"
      },
      "geometry": {
        "type": "Point",
        "coordinates": [
          31.616895538832313,
          0.03274728262486175
        ]
      }
    },
    {
      "type": "Feature",
      "properties": {
        "norad_id": 42738,
        "name": "QZS-2 (QZSS/PRN 194)",
        "group": "gnss",
        "lat": 33.90716105344804,
        "lon": -60.116398175287,
        "alt_km": 38514.34846142046,
        "timestamp": "2025-12-07T05:38:10.147636+00:00",
        "meta_object_name": "QZS-2 (QZSS/PRN 194)",
        "meta_object_id": "2017-028A",
        "meta_epoch": "2025-12-05T14:20:02.331744",
        "meta_mean_motion": 1.00284944,
        "meta_eccentricity": 0.07587515,
        "meta_inclination": 39.7259,
        "meta_ra_of_asc_node": 245.988,
        "meta_arg_of_pericenter": 269.4031,
        "meta_mean_anomaly": 275.8025,
        "meta_ephemeris_type": 0,
        "meta_classification_type": "U",
        "meta_norad_cat_id": 42738,
        "meta_element_set_no": 999,
        "meta_rev_at_epoch": 568,
        "meta_bstar": 0,
        "meta_mean_motion_dot": -1.57e-06,
        "meta_mean_motion_ddot": 0,
        "tle_line1": "1 42738U 17028A   25339.59724921 -.00000157  00000+0  00000+0 0  9995",
        "tle_line2": "2 42738  39.7259 245.9880 0758751 269.4031 275.8025  1.00284944  5685"
      },
      "geometry": {
        "type": "Point",
        "coordinates": [
          -60.116398175287,
          33.90716105344804
        ]
      }
    },
    {
      "type": "Feature",
      "properties": {
        "norad_id": 42917,
        "name": "QZS-3 (QZSS/PRN 199)",
        "group": "gnss",
        "lat": 0.038420048753807036,
        "lon": -72.16583867736247,
        "alt_km": 35777.058514166456,
        "timestamp": "2025-12-07T05:38:10.147649+00:00",
        "meta_object_name": "QZS-3 (QZSS/PRN 199)",
        "meta_object_id": "2017-048A",
        "meta_epoch": "2025-12-06T13:34:38.675424",
        "meta_mean_motion": 1.00274509,
        "meta_eccentricity": 0.00022241,
        "meta_inclination": 0.0682,
        "meta_ra_of_asc_node": 213.7971,
        "meta_arg_of_pericenter": 46.4896,
        "meta_mean_anomaly": 145.9976,
        "meta_ephemeris_type": 0,
        "meta_classification_type": "U",
        "meta_norad_cat_id": 42917,
        "meta_element_set_no": 999,
        "meta_rev_at_epoch": 3032,
        "meta_bstar": 0,
        "meta_mean_motion_dot": -3.41e-06,
        "meta_mean_motion_ddot": 0,
        "tle_line1": "1 42917U 17048A   25340.56572541 -.00000341  00000+0  00000+0 0  9999",
        "tle_line2": "2 42917   0.0682 213.7971 0002224  46.4896 145.9976  1.00274509 30325"
      },
      "geometry": {
        "type": "Point",
        "coordinates": [
          -72.16583867736247,
          0.038420048753807036
        ]
      }
    }
  ]
}